[{"OBJECT_NAME":"STARLINK-4644","OBJECT_ID":"2022-107V","EPOCH":"2026-03-09T15:38:20.342112","MEAN_MOTION":15.08844283,"ECCENTRICITY":0.00013076,"INCLINATION":53.2163,"RA_OF_ASC_NODE":223.9148,"ARG_OF_PERICENTER":95.4919,"MEAN_ANOMALY":264.6223,"EPHEMERIS_TYPE":0,"CLASSIFICATION_TYPE":"U","NORAD_CAT_ID":53719,"ELEMENT_SET_NO":999,"REV_AT_EPOCH":19483,"BSTAR":-6.404446e-5,"MEAN_MOTION_DOT":-1.307e-5,"MEAN_MOTION_DDOT":0},{"OBJECT_NAME":"CZ-6A DEB","OBJECT_ID":"2022-151CR","EPOCH":"2026-03-09T17:17:08.438784","MEAN_MOTION":15.11778726,"ECCENTRICITY":0.00454354,"INCLINATION":98.5417,"RA_OF_ASC_NODE":160.2576,"ARG_OF_PERICENTER":86.1357,"MEAN_ANOMALY":274.5063,"EPHEMERIS_TYPE":0,"CLASSIFICATION_TYPE":"U","NORAD_CAT_ID":54346,"ELEMENT_SET_NO":999,"REV_AT_EPOCH":17769,"BSTAR":0.0041471579,"MEAN_MOTION_DOT":0.00073134,"MEAN_MOTION_DDOT":0}]
